{
    "links": {
        "self": "http://www.neowsapp.com/rest/v1/neo/54031746?api_key=iIulBulltgU6a56xZRHN4H3l9WmuAYTsLGpBGhQ2"
    },
    "id": "54031746",
    "neo_reference_id": "54031746",
    "name": "(2020 NK)",
    "designation": "2020 NK",
    "nasa_jpl_url": "http://ssd.jpl.nasa.gov/sbdb.cgi?sstr=54031746",
    "absolute_magnitude_h": 23.64,
    "estimated_diameter": {
        "kilometers": {
            "estimated_diameter_min": 0.0497227313,
            "estimated_diameter_max": 0.1111834072
        },
        "meters": {
            "estimated_diameter_min": 49.7227312909,
            "estimated_diameter_max": 111.1834071935
        },
        "miles": {
            "estimated_diameter_min": 0.0308962633,
            "estimated_diameter_max": 0.0690861449
        },
        "feet": {
            "estimated_diameter_min": 163.1323257285,
            "estimated_diameter_max": 364.7749696566
        }
    },
    "is_potentially_hazardous_asteroid": false,
    "close_approach_data": [
        {
            "close_approach_date": "2017-05-28",
            "close_approach_date_full": "2017-May-28 02:22",
            "epoch_date_close_approach": 1495938120000,
            "relative_velocity": {
                "kilometers_per_second": "12.1815355039",
                "kilometers_per_hour": "43853.527813945",
                "miles_per_hour": "27248.8767686149"
            },
            "miss_distance": {
                "astronomical": "0.2853978885",
                "lunar": "111.0197786265",
                "kilometers": "42694916.222097495",
                "miles": "26529390.756215631"
            },
            "orbiting_body": "Earth"
        },
        {
            "close_approach_date": "2020-07-14",
            "close_approach_date_full": "2020-Jul-14 22:31",
            "epoch_date_close_approach": 1594765860000,
            "relative_velocity": {
                "kilometers_per_second": "8.9712208737",
                "kilometers_per_hour": "32296.3951453898",
                "miles_per_hour": "20067.7239724229"
            },
            "miss_distance": {
                "astronomical": "0.1032973048",
                "lunar": "40.1826515672",
                "kilometers": "15453056.774820776",
                "miles": "9602084.2253116688"
            },
            "orbiting_body": "Earth"
        },
        {
            "close_approach_date": "2023-08-11",
            "close_approach_date_full": "2023-Aug-11 06:12",
            "epoch_date_close_approach": 1691734320000,
            "relative_velocity": {
                "kilometers_per_second": "18.7425939747",
                "kilometers_per_hour": "67473.338309086",
                "miles_per_hour": "41925.3084621096"
            },
            "miss_distance": {
                "astronomical": "0.4566379259",
                "lunar": "177.6321531751",
                "kilometers": "68312061.075857833",
                "miles": "42447146.4522027754"
            },
            "orbiting_body": "Earth"
        }
    ],
    "orbital_data": {
        "orbit_id": "4",
        "orbit_determination_date": "2020-08-12 06:23:04",
        "first_observation_date": "2020-07-10",
        "last_observation_date": "2020-08-11",
        "data_arc_in_days": 32,
        "observations_used": 28,
        "orbit_uncertainty": "7",
        "minimum_orbit_intersection": ".0773811",
        "jupiter_tisserand_invariant": "3.566",
        "epoch_osculation": "2459000.5",
        "eccentricity": ".487258379312827",
        "semi_major_axis": "2.106574378481845",
        "inclination": "9.394641862258355",
        "ascending_node_longitude": "114.9639978879175",
        "orbital_period": "1116.769703084522",
        "perihelion_distance": "1.080128360920856",
        "perihelion_argument": "158.0279070133345",
        "aphelion_distance": "3.133020396042835",
        "perihelion_time": "2459030.383408391143",
        "mean_anomaly": "350.3668348173329",
        "mean_motion": ".3223583152423267",
        "equinox": "J2000",
        "orbit_class": {
            "orbit_class_type": "AMO",
            "orbit_class_description": "Near-Earth asteroid orbits similar to that of 1221 Amor",
            "orbit_class_range": "1.017 AU < q (perihelion) < 1.3 AU"
        }
    },
    "is_sentry_object": false
}